
2025-313BE
1 67482U 25313BE  26169.46909006  .00131143  00000+0  22331-2 0  9994
2 67482  97.3867 247.0387 0005060 282.7680  77.3006 15.50908576 23479

ALSAT-3A
1 67474U 26009A   26170.22969234  .00005096  00000+0  21566-3 0  9990
2 67474  97.4542 244.0899 0014964 106.4994 253.7888 15.23542194 23589

ION SCV-021
1 67483U 25276DT  26170.18315716  .00000672  00000+0  62287-4 0  9991
2 67483  97.5243 240.5630 0012319 112.8921 247.3603 14.97550157 22902

STARLINK-36081
1 67498U 26012F   26170.19123303  .00013813  00000+0  51045-3 0  9996
2 67498  43.0047 101.3238 0000949 301.0958  58.9800 15.27586913 23282

STARLINK-36269
1 67472U 26008AD  26170.19456230  .00017777  00000+0  65357-3 0  9995
2 67472  42.9994 352.1776 0002232 276.7414  83.3183 15.27598563 25099

STARLINK-36334
1 67471U 26008AC  26169.81637989  .00018188  00000+0  66866-3 0  9996
2 67471  43.0037 354.4991 0001679 273.3780  86.6879 15.27588739 25031

STARLINK-36396
1 67494U 26012B   26170.18994715  .00013603  00000+0  50278-3 0  9998
2 67494  43.0040 101.3275 0001162 260.5349  99.5372 15.27590196 23286

STARLINK-36408
1 67473U 26008AE  26170.00002315  .00054290  00000+0  19697-2 0  9993
2 67473  43.0011 353.1717 0001567 274.9533 136.4836 15.27550941  5912

STARLINK-36414
1 67468U 26008Z   26168.91495613  .00017594  00000+0  64686-3 0  9996
2 67468  43.0023 358.9094 0001976 267.0538  93.0087 15.27603722 24904

STARLINK-36425
1 67467U 26008Y   26170.19842493  .00024439  00000+0  89406-3 0  9993
2 67467  43.0016 352.2278 0000686 311.7028  48.3765 15.27603225 25099

STARLINK-36433
1 67501U 26012J   26170.17968419  .00022197  00000+0  81422-3 0  9991
2 67501  43.0046 101.2232 0001231 289.9131  70.1588 15.27560639 23287

STARLINK-36441
1 67469U 26008AA  26170.20227140  .00019599  00000+0  71979-3 0  9990
2 67469  42.9993 352.2380 0001943 285.8771  74.1866 15.27581660 25097

STARLINK-36454
1 67470U 26008AB  26168.98806830  .00006846  00000+0  25799-3 0  9993
2 67470  43.0028 358.5982 0001524  16.7703 343.3198 15.27593560 24919

STARLINK-36512
1 67504U 26012M   26170.16167169  .00016119  00000+0  59367-3 0  9996
2 67504  43.0003 101.0806 0001284 268.0578  92.0126 15.27597049 23285

STARLINK-36521
1 67507U 26012Q   26170.15138951  .00018093  00000+0  66444-3 0  9992
2 67507  43.0020 100.9977 0002000 261.9099  98.1525 15.27627684 23280

STARLINK-36534
1 67496U 26012D   26169.99891656  .00003047  00000+0  12009-3 0  9998
2 67496  42.9949 102.4522 0000311 185.8599 174.2249 15.27609817 23254

STARLINK-36545
1 67505U 26012N   26170.15781866  .00026339  00000+0  96296-3 0  9999
2 67505  43.0006 101.0518 0001311 267.2733  92.7968 15.27590061 23282

STARLINK-36550
1 67495U 26012C   26170.20151060  .00013744  00000+0  50802-3 0  9999
2 67495  43.0052 101.3992 0001585 266.1707  93.8963 15.27581598 23284

STARLINK-36551
1 67493U 26012A   26170.20921859  .00013613  00000+0  50306-3 0  9992
2 67493  43.0034 101.4544 0001848 250.2559 109.8094 15.27594281 23283

STARLINK-36552
1 67503U 26012L   26170.16938161  .00017258  00000+0  63484-3 0  9993
2 67503  43.0010 101.1385 0001215 269.3977  90.6735 15.27598225 23283

STARLINK-36553
1 67506U 26012P   26170.21933849  .00009649  00000+0  35956-3 0  9998
2 67506  43.0011 100.6486 0001433 269.0346  91.0341 15.27592809 23293

STARLINK-36554
1 67502U 26012K   26170.10785180  .00010663  00000+0  39633-3 0  9999
2 67502  43.0011 101.5439 0001325 260.7323  99.3378 15.27589350 23276

STARLINK-36555
1 67497U 26012E   26169.93611509  .00012662  00000+0  46870-3 0  9996
2 67497  43.0022 102.8441 0001117 271.5023  88.5701 15.27592020 23249

STARLINK-36557
1 67500U 26012H   26170.18351690  .00016245  00000+0  59833-3 0  9996
2 67500  43.0013 101.2556 0001366 269.8537  90.2158 15.27592327 23280

STARLINK-36558
1 67499U 26012G   26170.18737531  .00014310  00000+0  52839-3 0  9995
2 67499  43.0014 101.2964 0000957 260.9235  99.1509 15.27588262 23284

SZ-20 MODULE
1 67481U 25082C   26167.69711745  .00022635  00000+0  19179-3 0  9992
2 67481  41.4774 319.3209 0012257 344.2126  15.8333 15.69047159293151

TIANQI-37
1 67476U 26010A   26170.10407897  .00000006  00000+0  92556-4 0  9997
2 67476  44.9827  73.2081 0012621 334.8263  25.1953 13.99164472 21664

TIANQI-38
1 67477U 26010B   26170.08658638  .00000024  00000+0  10474-3 0  9994
2 67477  44.9789  73.0582 0011267 341.0663  18.9750 13.99160075 21665

TIANQI-39
1 67478U 26010C   26164.54161418 -.00000005  00000+0  79242-4 0  9993
2 67478  44.9799  94.3237 0015620 321.2511  38.7202 14.03665883 20933

TIANQI-40
1 67479U 26010D   26170.05092821  .00000041  00000+0  11658-3 0  9993
2 67479  44.9829  73.6439 0011172 347.1316  12.9230 13.99147559 21654
