OBJECT_NAME,OBJECT_ID,EPOCH,MEAN_MOTION,ECCENTRICITY,INCLINATION,RA_OF_ASC_NODE,ARG_OF_PERICENTER,MEAN_ANOMALY,EPHEMERIS_TYPE,CLASSIFICATION_TYPE,NORAD_CAT_ID,ELEMENT_SET_NO,REV_AT_EPOCH,BSTAR,MEAN_MOTION_DOT,MEAN_MOTION_DDOT
STARLINK-36425,2026-008Y,2026-06-19T04:45:43.913952,15.27603225,.00006865,43.0016,352.2278,311.7028,48.3765,0,U,67467,999,2509,.89405957E-3,.24439E-3,0
STARLINK-36414,2026-008Z,2026-06-17T21:57:32.209632,15.27603722,.00019767,43.0023,358.9094,267.0538,93.0087,0,U,67468,999,2490,.64685838E-3,.17594E-3,0
STARLINK-36441,2026-008AA,2026-06-19T04:51:16.248960,15.27581660,.00019438,42.9993,352.2380,285.8771,74.1866,0,U,67469,999,2509,.71979289E-3,.19599E-3,0
STARLINK-36454,2026-008AB,2026-06-17T23:42:49.101120,15.27593560,.00015242,43.0028,358.5982,16.7703,343.3198,0,U,67470,999,2491,.25798517E-3,.6846E-4,0
STARLINK-36334,2026-008AC,2026-06-18T19:35:35.222496,15.27588739,.00016794,43.0037,354.4991,273.3780,86.6879,0,U,67471,999,2503,.66865506E-3,.18188E-3,0
STARLINK-36269,2026-008AD,2026-06-19T04:40:10.182720,15.27598563,.00022327,42.9994,352.1776,276.7414,83.3183,0,U,67472,999,2509,.65356824E-3,.17777E-3,0
STARLINK-36408,2026-008AE,2026-06-19T00:00:02.000160,15.27550941,.00015677,43.0011,353.1717,274.9533,136.4836,0,U,67473,999,591,.1969659E-2,.5429E-3,0
ALSAT-3A,2026-009A,2026-06-19T05:30:45.418176,15.23542194,.00149647,97.4542,244.0899,106.4994,253.7888,0,U,67474,999,2358,.21565517E-3,.5096E-4,0
TIANQI-37,2026-010A,2026-06-19T02:29:52.423008,13.99164472,.00126219,44.9827,73.2081,334.8263,25.1953,0,U,67476,999,2166,.92556302E-4,.6E-7,0
TIANQI-38,2026-010B,2026-06-19T02:04:41.063232,13.99160075,.00112675,44.9789,73.0582,341.0663,18.9750,0,U,67477,999,2166,.10474106E-3,.24E-6,0
TIANQI-39,2026-010C,2026-06-13T12:59:55.465152,14.03665883,.00156201,44.9799,94.3237,321.2511,38.7202,0,U,67478,999,2093,.79241904E-4,-.5E-7,0
TIANQI-40,2026-010D,2026-06-19T01:13:20.197344,13.99147559,.00111728,44.9829,73.6439,347.1316,12.9230,0,U,67479,999,2165,.11658329E-3,.41E-6,0
SZ-20 MODULE,2025-082C,2026-06-16T16:43:50.947680,15.69047159,.00122579,41.4774,319.3209,344.2126,15.8333,0,U,67481,999,29315,.19178718E-3,.22635E-3,0
2025-313BE,2025-313BE,2026-06-18T11:15:29.381184,15.50908576,.000506,97.3867,247.0387,282.7680,77.3006,0,U,67482,999,2347,.22331E-2,.131143E-2,0
ION SCV-021,2025-276DT,2026-06-19T04:23:44.778624,14.97550157,.00123192,97.5243,240.5630,112.8921,247.3603,0,U,67483,999,2290,.62286729E-4,.672E-5,0
STARLINK-36551,2026-012A,2026-06-19T05:01:16.486176,15.27594281,.00018485,43.0034,101.4544,250.2559,109.8094,0,U,67493,999,2328,.50306139E-3,.13613E-3,0
STARLINK-36396,2026-012B,2026-06-19T04:33:31.433760,15.27590196,.00011623,43.0040,101.3275,260.5349,99.5372,0,U,67494,999,2328,.5027838E-3,.13603E-3,0
STARLINK-36550,2026-012C,2026-06-19T04:50:10.515840,15.27581598,.00015856,43.0052,101.3992,266.1707,93.8963,0,U,67495,999,2328,.50802326E-3,.13744E-3,0
STARLINK-36534,2026-012D,2026-06-18T23:58:26.390784,15.27609817,.00003117,42.9949,102.4522,185.8599,174.2249,0,U,67496,999,2325,.1200892E-3,.3047E-4,0
STARLINK-36555,2026-012E,2026-06-18T22:28:00.343776,15.27592020,.0001117,43.0022,102.8441,271.5023,88.5701,0,U,67497,999,2324,.4687E-3,.12662E-3,0
STARLINK-36081,2026-012F,2026-06-19T04:35:22.533792,15.27586913,.00009497,43.0047,101.3238,301.0958,58.9800,0,U,67498,999,2328,.51044741E-3,.13813E-3,0
STARLINK-36558,2026-012G,2026-06-19T04:29:49.226784,15.27588262,.0000957,43.0014,101.2964,260.9235,99.1509,0,U,67499,999,2328,.52839019E-3,.1431E-3,0
STARLINK-36557,2026-012H,2026-06-19T04:24:15.860160,15.27592327,.00013663,43.0013,101.2556,269.8537,90.2158,0,U,67500,999,2328,.5983348E-3,.16245E-3,0
STARLINK-36433,2026-012J,2026-06-19T04:18:44.714016,15.27560639,.0001231,43.0046,101.2232,289.9131,70.1588,0,U,67501,999,2328,.81421609E-3,.22197E-3,0
STARLINK-36554,2026-012K,2026-06-19T02:35:18.395520,15.27589350,.00013259,43.0011,101.5439,260.7323,99.3378,0,U,67502,999,2327,.39633016E-3,.10663E-3,0
STARLINK-36552,2026-012L,2026-06-19T04:03:54.571104,15.27598225,.00012152,43.0010,101.1385,269.3977,90.6735,0,U,67503,999,2328,.63484186E-3,.17258E-3,0
STARLINK-36512,2026-012M,2026-06-19T03:52:48.434016,15.27597049,.00012846,43.0003,101.0806,268.0578,92.0126,0,U,67504,999,2328,.59366769E-3,.16119E-3,0
STARLINK-36545,2026-012N,2026-06-19T03:47:15.532224,15.27590061,.00013114,43.0006,101.0518,267.2733,92.7968,0,U,67505,999,2328,.96296402E-3,.26339E-3,0
STARLINK-36553,2026-012P,2026-06-19T05:15:50.845536,15.27592809,.00014335,43.0011,100.6486,269.0346,91.0341,0,U,67506,999,2329,.35955932E-3,.9649E-4,0
STARLINK-36521,2026-012Q,2026-06-19T03:38:00.053664,15.27627684,.00020003,43.0020,100.9977,261.9099,98.1525,0,U,67507,999,2328,.66443725E-3,.18093E-3,0
